CTC1_L_00680007-03
1 38747U 23674AB  26037.47811343  .00000000  00000+0  00000-0 0  9999
2 38747  60.0000 180.0000 0000000   0.0000 144.0000  1.86512136    19
CTC1_L_00680007-04
1 38748U 24236HK  26037.47811343  .00000000  00000+0  00000-0 0  9995
2 38748  60.0000 180.0000 0000000   0.0000 180.0000  1.86512136    10
CTC1_L_00680007-05
1 38749U 24725NW  26037.47811343  .00000000  00000+0  00000-0 0  9999
2 38749  60.0000 180.0000 0000000   0.0000 216.0000  1.86512136    11
CTC1_L_00680007-06
1 38750U 23036SZ  26037.47811343  .00000000  00000+0  00000-0 0  9995
2 38750  60.0000 180.0000 0000000   0.0000 252.0000  1.86512136    13
CTC1_L_00680007-07
1 38751U 23416Z   26037.47811343  .00000000  00000+0  00000-0 0  9998
2 38751  60.0000 180.0000 0000000   0.0000 288.0000  1.86512136    13
CTC1_L_00680007-08
1 38752U 24970XE  26037.47811343  .00000000  00000+0  00000-0 0  9995
2 38752  60.0000 180.0000 0000000   0.0000 324.0000  1.86512136    15
CTC1_L_00680007-09
1 38753U 24245R   26037.47811343  .00000000  00000+0  00000-0 0  9991
2 38753  60.0000 180.0000 0000000   0.0000   0.0000  1.86512136    17
CTC1_L_00680007-10
1 38754U 25527DS  26037.47811343  .00000000  00000+0  00000-0 0  9996
2 38754  60.0000 180.0000 0000000   0.0000  36.0000  1.86512136    17
CTC1_L_00680008-01
1 38755U 23214PW  26037.47811343  .00000000  00000+0  00000-0 0  9998
2 38755  60.0000 210.0000 0000000   0.0000  84.0000  1.86512136    15
CTC1_L_00680008-02
1 38756U 26284CT  26037.47811343  .00000000  00000+0  00000-0 0  9999
2 38756  60.0000 210.0000 0000000   0.0000 120.0000  1.86512136    17
CTC1_L_00680008-03
1 38757U 25560BI  26037.47811343  .00000000  00000+0  00000-0 0  9996
2 38757  60.0000 210.0000 0000000   0.0000 156.0000  1.86512136    17
CTC1_L_00680008-04
1 38758U 25226ZQ  26037.47811343  .00000000  00000+0  00000-0 0  9996
2 38758  60.0000 210.0000 0000000   0.0000 192.0000  1.86512136    18
CTC1_L_00680008-05
1 38759U 25144GH  26037.47811343  .00000000  00000+0  00000-0 0  9996
2 38759  60.0000 210.0000 0000000   0.0000 228.0000  1.86512136    19
CTC1_L_00680008-06
1 38760U 22486QY  26037.47811343  .00000000  00000+0  00000-0 0  9994
2 38760  60.0000 210.0000 0000000   0.0000 264.0000  1.86512136    11
CTC1_L_00680008-07
1 38761U 23997KN  26037.47811343  .00000000  00000+0  00000-0 0  9993
2 38761  60.0000 210.0000 0000000   0.0000 300.0000  1.86512136    13
CTC1_L_00680008-08
1 38762U 22893MB  26037.47811343  .00000000  00000+0  00000-0 0  9998
2 38762  60.0000 210.0000 0000000   0.0000 336.0000  1.86512136    13
CTC1_L_00680008-09
1 38763U 23282LE  26037.47811343  .00000000  00000+0  00000-0 0  9992
2 38763  60.0000 210.0000 0000000   0.0000  12.0000  1.86512136    15
CTC1_L_00680008-10
1 38764U 26575ZV  26037.47811343  .00000000  00000+0  00000-0 0  9991
2 38764  60.0000 210.0000 0000000   0.0000  48.0000  1.86512136    15
CTC1_L_00680009-01
1 38765U 24148RS  26037.47811343  .00000000  00000+0  00000-0 0  9996
2 38765  60.0000 240.0000 0000000   0.0000  96.0000  1.86512136    12
CTC1_L_00680009-02
1 38766U 23403AA  26037.47811343  .00000000  00000+0  00000-0 0  9990
2 38766  60.0000 240.0000 0000000   0.0000 132.0000  1.86512136    14
CTC1_L_00680009-03
1 38767U 23155FJ  26037.47811343  .00000000  00000+0  00000-0 0  9995
2 38767  60.0000 240.0000 0000000   0.0000 168.0000  1.86512136    14
CTC1_L_00680009-04
1 38768U 25405AA  26037.47811343  .00000000  00000+0  00000-0 0  9996
2 38768  60.0000 240.0000 0000000   0.0000 204.0000  1.86512136    16
CTC1_L_00680009-05
1 38769U 22023OM  26037.47811343  .00000000  00000+0  00000-0 0  9990
2 38769  60.0000 240.0000 0000000   0.0000 240.0000  1.86512136    17
CTC1_L_00680009-06
1 38770U 23916EN  26037.47811343  .00000000  00000+0  00000-0 0  9994
2 38770  60.0000 240.0000 0000000   0.0000 276.0000  1.86512136    18
CTC1_L_00680009-07
1 38771U 26465TC  26037.47811343  .00000000  00000+0  00000-0 0  9997
2 38771  60.0000 240.0000 0000000   0.0000 312.0000  1.86512136    10
CTC1_L_00680009-08
1 38772U 24052XI  26037.47811343  .00000000  00000+0  00000-0 0  9998
2 38772  60.0000 240.0000 0000000   0.0000 348.0000  1.86512136    10
CTC1_L_00680009-09
1 38773U 24835EI  26037.47811343  .00000000  00000+0  00000-0 0  9998
2 38773  60.0000 240.0000 0000000   0.0000  24.0000  1.86512136    12
CTC1_L_00680009-10
1 38774U 23794SO  26037.47811343  .00000000  00000+0  00000-0 0  9992
2 38774  60.0000 240.0000 0000000   0.0000  60.0000  1.86512136    13
CTC1_L_00680010-01
1 38775U 22311DV  26037.47811343  .00000000  00000+0  00000-0 0  9997
2 38775  60.0000 270.0000 0000000   0.0000 108.0000  1.86512136    10
CTC1_L_00680010-02
1 38776U 26357DA  26037.47811343  .00000000  00000+0  00000-0 0  9992
2 38776  60.0000 270.0000 0000000   0.0000 144.0000  1.86512136    11
CTC1_L_00680010-03
1 38777U 23504EK  26037.47811343  .00000000  00000+0  00000-0 0  9994
2 38777  60.0000 270.0000 0000000   0.0000 180.0000  1.86512136    12
CTC1_L_00680010-04
1 38778U 24161CL  26037.47811343  .00000000  00000+0  00000-0 0  9995
2 38778  60.0000 270.0000 0000000   0.0000 216.0000  1.86512136    13
CTC1_L_00680010-05
1 38779U 22875RC  26037.47811343  .00000000  00000+0  00000-0 0  9996
2 38779  60.0000 270.0000 0000000   0.0000 252.0000  1.86512136    14
CTC1_L_00680010-06
1 38780U 23790TV  26037.47811343  .00000000  00000+0  00000-0 0  9995
2 38780  60.0000 270.0000 0000000   0.0000 288.0000  1.86512136    15
CTC1_L_00680010-07
1 38781U 24931TO  26037.47811343  .00000000  00000+0  00000-0 0  9994
2 38781  60.0000 270.0000 0000000   0.0000 324.0000  1.86512136    17
CTC1_L_00680010-08
1 38782U 23871EB  26037.47811343  .00000000  00000+0  00000-0 0  9997
2 38782  60.0000 270.0000 0000000   0.0000   0.0000  1.86512136    19
CTC1_L_00680010-09
1 38783U 24236LE  26037.47811343  .00000000  00000+0  00000-0 0  9994
2 38783  60.0000 270.0000 0000000   0.0000  36.0000  1.86512136    19
CTC1_L_00680010-10
1 38784U 23787V   26037.47811343  .00000000  00000+0  00000-0 0  9995
2 38784  60.0000 270.0000 0000000   0.0000  72.0000  1.86512136    10
CTC1_L_00680011-01
1 38785U 26489GH  26037.47811343  .00000000  00000+0  00000-0 0  9998
2 38785  60.0000 300.0000 0000000   0.0000 120.0000  1.86512136    19
CTC1_L_00680011-02
1 38786U 25248F   26037.47811343  .00000000  00000+0  00000-0 0  9991
2 38786  60.0000 300.0000 0000000   0.0000 156.0000  1.86512136    19
CTC1_L_00680011-03
1 38787U 22204KU  26037.47811343  .00000000  00000+0  00000-0 0  9991
2 38787  60.0000 300.0000 0000000   0.0000 192.0000  1.86512136    10
CTC1_L_00680011-04
1 38788U 24483BB  26037.47811343  .00000000  00000+0  00000-0 0  9993
2 38788  60.0000 300.0000 0000000   0.0000 228.0000  1.86512136    11
CTC1_L_00680011-05
1 38789U 22076CY  26037.47811343  .00000000  00000+0  00000-0 0  9990
2 38789  60.0000 300.0000 0000000   0.0000 264.0000  1.86512136    12
CTC1_L_00680011-06
1 38790U 24705CT  26037.47811343  .00000000  00000+0  00000-0 0  9993
2 38790  60.0000 300.0000 0000000   0.0000 300.0000  1.86512136    15
CTC1_L_00680011-07
1 38791U 22902WU  26037.47811343  .00000000  00000+0  00000-0 0  9991
2 38791  60.0000 300.0000 0000000   0.0000 336.0000  1.86512136    15
CTC1_L_00680011-08
1 38792U 22795PF  26037.47811343  .00000000  00000+0  00000-0 0  9992
2 38792  60.0000 300.0000 0000000   0.0000  12.0000  1.86512136    17
CTC1_L_00680011-09
1 38793U 26132LY  26037.47811343  .00000000  00000+0  00000-0 0  9992
2 38793  60.0000 300.0000 0000000   0.0000  48.0000  1.86512136    17
CTC1_L_00680011-10
1 38794U 25513YZ  26037.47811343  .00000000  00000+0  00000-0 0  9995
2 38794  60.0000 300.0000 0000000   0.0000  84.0000  1.86512136    18
CTC1_L_00680012-01
1 38795U 25443UE  26037.47811343  .00000000  00000+0  00000-0 0  9998
2 38795  60.0000 330.0000 0000000   0.0000 132.0000  1.86512136    16
CTC1_L_00680012-02
1 38796U 26809FI  26037.47811343  .00000000  00000+0  00000-0 0  9996
2 38796  60.0000 330.0000 0000000   0.0000 168.0000  1.86512136    16
CTC1_L_00680012-03
1 38797U 25206ZL  26037.47811343  .00000000  00000+0  00000-0 0  9997
2 38797  60.0000 330.0000 0000000   0.0000 204.0000  1.86512136    18
CTC1_L_00680012-04
1 38798U 22878NR  26037.47811343  .00000000  00000+0  00000-0 0  9990
2 38798  60.0000 330.0000 0000000   0.0000 240.0000  1.86512136    19
CTC1_L_00680012-05
1 38799U 23109NV  26037.47811343  .00000000  00000+0  00000-0 0  9999
2 38799  60.0000 330.0000 0000000   0.0000 276.0000  1.86512136    19
CTC1_L_00680012-06
1 38800U 24814US  26037.47811343  .00000000  00000+0  00000-0 0  9996
2 38800  60.0000 330.0000 0000000   0.0000 312.0000  1.86512136    13
CTC1_L_00680012-07
1 38801U 23830AB  26037.47811343  .00000000  00000+0  00000-0 0  9994
2 38801  60.0000 330.0000 0000000   0.0000 348.0000  1.86512136    13
CTC1_L_00680012-08
1 38802U 24536ZO  26037.47811343  .00000000  00000+0  00000-0 0  9999
2 38802  60.0000 330.0000 0000000   0.0000  24.0000  1.86512136    15
CTC1_L_00680012-09
1 38803U 25138DU  26037.47811343  .00000000  00000+0  00000-0 0  9999
2 38803  60.0000 330.0000 0000000   0.0000  60.0000  1.86512136    16
CTC1_L_00680012-10
1 38804U 26311XZ  26037.47811343  .00000000  00000+0  00000-0 0  9994
2 38804  60.0000 330.0000 0000000   0.0000  96.0000  1.86512136    16
